[{"OBJECT_NAME":"STARLINK-2521","OBJECT_ID":"2021-044L","EPOCH":"2026-03-09T12:11:30.980544","MEAN_MOTION":15.30195906,"ECCENTRICITY":0.00012672,"INCLINATION":53.1608,"RA_OF_ASC_NODE":114.7009,"ARG_OF_PERICENTER":91.586,"MEAN_ANOMALY":268.5286,"EPHEMERIS_TYPE":0,"CLASSIFICATION_TYPE":"U","NORAD_CAT_ID":48648,"ELEMENT_SET_NO":999,"REV_AT_EPOCH":26380,"BSTAR":2.6206278e-5,"MEAN_MOTION_DOT":4.17e-6,"MEAN_MOTION_DDOT":0},{"OBJECT_NAME":"OBJECT AD","OBJECT_ID":"2023-085AD","EPOCH":"2026-03-09T21:41:29.115744","MEAN_MOTION":15.31779154,"ECCENTRICITY":0.00101154,"INCLINATION":97.4841,"RA_OF_ASC_NODE":180.2223,"ARG_OF_PERICENTER":77.5993,"MEAN_ANOMALY":282.638,"EPHEMERIS_TYPE":0,"CLASSIFICATION_TYPE":"U","NORAD_CAT_ID":57031,"ELEMENT_SET_NO":999,"REV_AT_EPOCH":15156,"BSTAR":0.00068352515,"MEAN_MOTION_DOT":0.00020961,"MEAN_MOTION_DDOT":0}]
